start=new Date('2021-12-23T00:00:00.000Z').valueOf();
sats=[{"OBJECT_NAME":"STARLINK-1903","SEMIMAJOR_AXIS":"6925.384","REV_AT_EPOCH":"6463","ECCENTRICITY":"0.00014050","OBJECT_TYPE":"PAYLOAD","TLE_LINE2":"2 46764  53.0547  41.6418 0001405  71.6280 288.4862 15.06388398 64639","APOAPSIS":"548.222","MEAN_MOTION_DOT":"-0.00003120","MEAN_ELEMENT_THEORY":"SGP4","SITE":"AFETR","DECAY_DATE":null,"EPOCH":"2021-12-22T12:54:08.671104","CENTER_NAME":"EARTH","LAUNCH_DATE":"2020-10-24","TIME_SYSTEM":"UTC","INCLINATION":"53.0547","TLE_LINE1":"1 46764U 20074AB  21356.53760036 -.00003120  00000-0 -19070-3 0  9995","MEAN_MOTION_DDOT":"0.0000000000000","BSTAR":"-0.00019070000000","GP_ID":"192217594","REF_FRAME":"TEME","ARG_OF_PERICENTER":"71.6280","EPHEMERIS_TYPE":"0","PERIAPSIS":"546.276","RCS_SIZE":"LARGE","OBJECT_ID":"2020-074AB","ELEMENT_SET_NO":"999","CLASSIFICATION_TYPE":"U","COUNTRY_CODE":"US","MEAN_ANOMALY":"288.4862","MEAN_MOTION":"15.06388398","PERIOD":"95.593","NORAD_CAT_ID":"46764","RA_OF_ASC_NODE":"41.6418","FILE":"3247523"},{"MEAN_ANOMALY":"280.2504","CLASSIFICATION_TYPE":"U","COUNTRY_CODE":"US","RA_OF_ASC_NODE":"41.7118","FILE":"3247523","MEAN_MOTION":"15.06394651","NORAD_CAT_ID":"46765","PERIOD":"95.592","REF_FRAME":"TEME","TLE_LINE1":"1 46765U 20074AC  21356.52652776 -.00002212  00000-0 -12968-3 0  9996","MEAN_MOTION_DDOT":"0.0000000000000","BSTAR":"-0.00012968000000","GP_ID":"192218344","ELEMENT_SET_NO":"999","OBJECT_ID":"2020-074AC","ARG_OF_PERICENTER":"79.8651","EPHEMERIS_TYPE":"0","PERIAPSIS":"546.206","RCS_SIZE":"LARGE","SITE":"AFETR","DECAY_DATE":null,"EPOCH":"2021-12-22T12:38:11.998464","MEAN_ELEMENT_THEORY":"SGP4","INCLINATION":"53.0551","CENTER_NAME":"EARTH","TIME_SYSTEM":"UTC","LAUNCH_DATE":"2020-10-24","SEMIMAJOR_AXIS":"6925.365","OBJECT_NAME":"STARLINK-1906","TLE_LINE2":"2 46765  53.0551  41.7118 0001479  79.8651 280.2504 15.06394651 64627","APOAPSIS":"548.254","MEAN_MOTION_DOT":"-0.00002212","REV_AT_EPOCH":"6462","ECCENTRICITY":"0.00014790","OBJECT_TYPE":"PAYLOAD"},{"REF_FRAME":"TEME","BSTAR":"-0.00001761900000","GP_ID":"192218596","TLE_LINE1":"1 46766U 20074AD  21356.51915828 -.00000544  00000-0 -17619-4 0  9991","MEAN_MOTION_DDOT":"0.0000000000000","OBJECT_ID":"2020-074AD","ELEMENT_SET_NO":"999","RCS_SIZE":"LARGE","EPHEMERIS_TYPE":"0","ARG_OF_PERICENTER":"71.0179","PERIAPSIS":"546.335","MEAN_ANOMALY":"289.0950","COUNTRY_CODE":"US","CLASSIFICATION_TYPE":"U","FILE":"3247523","RA_OF_ASC_NODE":"41.7364","NORAD_CAT_ID":"46766","PERIOD":"95.592","MEAN_MOTION":"15.06395682","SEMIMAJOR_AXIS":"6925.362","OBJECT_NAME":"STARLINK-1916","MEAN_MOTION_DOT":"-0.00000544","TLE_LINE2":"2 46766  53.0531  41.7364 0001288  71.0179 289.0950 15.06395682 64634","APOAPSIS":"548.119","OBJECT_TYPE":"PAYLOAD","ECCENTRICITY":"0.00012880","REV_AT_EPOCH":"6463","DECAY_DATE":null,"EPOCH":"2021-12-22T12:27:35.275392","SITE":"AFETR","MEAN_ELEMENT_THEORY":"SGP4","INCLINATION":"53.0531","LAUNCH_DATE":"2020-10-24","TIME_SYSTEM":"UTC","CENTER_NAME":"EARTH"},{"INCLINATION":"53.0545","CENTER_NAME":"EARTH","TIME_SYSTEM":"UTC","LAUNCH_DATE":"2020-10-24","SITE":"AFETR","DECAY_DATE":null,"EPOCH":"2021-12-22T13:10:03.201024","MEAN_ELEMENT_THEORY":"SGP4","TLE_LINE2":"2 46767  53.0545  41.5940 0001210  81.1128 278.9998 15.06391897 64632","APOAPSIS":"548.076","MEAN_MOTION_DOT":"-0.00001643","REV_AT_EPOCH":"6463","OBJECT_TYPE":"PAYLOAD","ECCENTRICITY":"0.00012100","SEMIMAJOR_AXIS":"6925.373","OBJECT_NAME":"STARLINK-1917","RA_OF_ASC_NODE":"41.5940","FILE":"3247523","MEAN_MOTION":"15.06391897","PERIOD":"95.593","NORAD_CAT_ID":"46767","MEAN_ANOMALY":"278.9998","CLASSIFICATION_TYPE":"U","COUNTRY_CODE":"US","OBJECT_ID":"2020-074AE","ELEMENT_SET_NO":"999","EPHEMERIS_TYPE":"0","ARG_OF_PERICENTER":"81.1128","PERIAPSIS":"546.400","RCS_SIZE":"LARGE","REF_FRAME":"TEME","TLE_LINE1":"1 46767U 20074AE  21356.54864816 -.00001643  00000-0 -91449-4 0  9999","MEAN_MOTION_DDOT":"0.0000000000000","BSTAR":"-0.00009144900000","GP_ID":"192219347"},{"MEAN_ELEMENT_THEORY":"SGP4","DECAY_DATE":null,"EPOCH":"2021-12-22T13:15:21.934944","SITE":"AFETR","LAUNCH_DATE":"2020-10-24","TIME_SYSTEM":"UTC","CENTER_NAME":"EARTH","INCLINATION":"53.0556","OBJECT_NAME":"STARLINK-1918","SEMIMAJOR_AXIS":"6925.399","OBJECT_TYPE":"PAYLOAD","ECCENTRICITY":"0.00014120","REV_AT_EPOCH":"6463","MEAN_MOTION_DOT":"-0.00001668","TLE_LINE2":"2 46768  53.0556  41.5881 0001412  62.2822 297.8310 15.06383541 64639","APOAPSIS":"548.242","COUNTRY_CODE":"US","CLASSIFICATION_TYPE":"U","MEAN_ANOMALY":"297.8310","NORAD_CAT_ID":"46768","PERIOD":"95.593","MEAN_MOTION":"15.06383541","FILE":"3247523","RA_OF_ASC_NODE":"41.5881","BSTAR":"-0.00009316300000","GP_ID":"192218095","TLE_LINE1":"1 46768U 20074AF  21356.55233721 -.00001668  00000-0 -93163-4 0  9998","MEAN_MOTION_DDOT":"0.0000000000000","REF_FRAME":"TEME","RCS_SIZE":"LARGE","ARG_OF_PERICENTER":"62.2822","EPHEMERIS_TYPE":"0","PERIAPSIS":"546.286","OBJECT_ID":"2020-074AF","ELEMENT_SET_NO":"999"},{"SITE":"AFETR","DECAY_DATE":null,"EPOCH":"2021-12-22T14:36:42.086880","MEAN_ELEMENT_THEORY":"SGP4","INCLINATION":"53.0576","CENTER_NAME":"EARTH","TIME_SYSTEM":"UTC","LAUNCH_DATE":"2020-10-24","SEMIMAJOR_AXIS":"6815.988","OBJECT_NAME":"STARLINK-1919","TLE_LINE2":"2 46769  53.0576  32.5901 0003539 330.1663  29.9140 15.42799649 64766","APOAPSIS":"440.265","MEAN_MOTION_DOT":"0.00004931","REV_AT_EPOCH":"6476","ECCENTRICITY":"0.00035390","OBJECT_TYPE":"PAYLOAD","MEAN_ANOMALY":"29.9140","CLASSIFICATION_TYPE":"U","COUNTRY_CODE":"US","RA_OF_ASC_NODE":"32.5901","FILE":"3247523","MEAN_MOTION":"15.42799649","NORAD_CAT_ID":"46769","PERIOD":"93.337","REF_FRAME":"TEME","TLE_LINE1":"1 46769U 20074AG  21356.60882045  .00004931  00000-0  12017-3 0  9996","MEAN_MOTION_DDOT":"0.0000000000000","BSTAR":"0.00012017000000","GP_ID":"192217844","ELEMENT_SET_NO":"999","OBJECT_ID":"2020-074AG","EPHEMERIS_TYPE":"0","ARG_OF_PERICENTER":"330.1663","PERIAPSIS":"435.441","RCS_SIZE":"LARGE"},{"GP_ID":"192219097","BSTAR":"-0.00006336600000","MEAN_MOTION_DDOT":"0.0000000000000","TLE_LINE1":"1 46770U 20074AH  21356.50716764 -.00001225  00000-0 -63366-4 0  9990","REF_FRAME":"TEME","RCS_SIZE":"LARGE","PERIAPSIS":"546.308","ARG_OF_PERICENTER":"81.2394","EPHEMERIS_TYPE":"0","ELEMENT_SET_NO":"999","OBJECT_ID":"2020-074AH","COUNTRY_CODE":"US","CLASSIFICATION_TYPE":"U","MEAN_ANOMALY":"278.8749","NORAD_CAT_ID":"46770","PERIOD":"95.593","MEAN_MOTION":"15.06386984","FILE":"3247523","RA_OF_ASC_NODE":"41.7876","OBJECT_NAME":"STARLINK-1932","SEMIMAJOR_AXIS":"6925.388","OBJECT_TYPE":"PAYLOAD","ECCENTRICITY":"0.00013650","REV_AT_EPOCH":"6462","MEAN_MOTION_DOT":"-0.00001225","APOAPSIS":"548.199","TLE_LINE2":"2 46770  53.0559  41.7876 0001365  81.2394 278.8749 15.06386984 64621","MEAN_ELEMENT_THEORY":"SGP4","EPOCH":"2021-12-22T12:10:19.284096","DECAY_DATE":null,"SITE":"AFETR","LAUNCH_DATE":"2020-10-24","TIME_SYSTEM":"UTC","CENTER_NAME":"EARTH","INCLINATION":"53.0559"},{"MEAN_ANOMALY":"287.5948","CLASSIFICATION_TYPE":"U","COUNTRY_CODE":"US","RA_OF_ASC_NODE":"42.1540","FILE":"3247523","MEAN_MOTION":"15.06386000","NORAD_CAT_ID":"46772","PERIOD":"95.593","REF_FRAME":"TEME","TLE_LINE1":"1 46772U 20074AK  21356.42701003 -.00004354  00000-0 -27366-3 0  9998","MEAN_MOTION_DDOT":"0.0000000000000","BSTAR":"-0.00027366000000","GP_ID":"192218847","ELEMENT_SET_NO":"999","OBJECT_ID":"2020-074AK","EPHEMERIS_TYPE":"0","ARG_OF_PERICENTER":"72.5200","PERIAPSIS":"546.248","RCS_SIZE":"LARGE","SITE":"AFETR","DECAY_DATE":null,"EPOCH":"2021-12-22T10:14:53.666592","MEAN_ELEMENT_THEORY":"SGP4","INCLINATION":"53.0545","CENTER_NAME":"EARTH","LAUNCH_DATE":"2020-10-24","TIME_SYSTEM":"UTC","SEMIMAJOR_AXIS":"6925.391","OBJECT_NAME":"STARLINK-1936","TLE_LINE2":"2 46772  53.0545  42.1540 0001456  72.5200 287.5948 15.06386000 64617","APOAPSIS":"548.265","MEAN_MOTION_DOT":"-0.00004354","REV_AT_EPOCH":"6461","ECCENTRICITY":"0.00014560","OBJECT_TYPE":"PAYLOAD"},{"APOAPSIS":"540.615","TLE_LINE2":"2 46774  53.0538  39.4593 0001067  70.0749 290.0356 15.08796910 64672","MEAN_MOTION_DOT":"0.00014156","REV_AT_EPOCH":"6467","ECCENTRICITY":"0.00010670","OBJECT_TYPE":"PAYLOAD","SEMIMAJOR_AXIS":"6918.012","OBJECT_NAME":"STARLINK-1939","INCLINATION":"53.0538","CENTER_NAME":"EARTH","TIME_SYSTEM":"UTC","LAUNCH_DATE":"2020-10-24","SITE":"AFETR","EPOCH":"2021-12-22T14:21:32.404608","DECAY_DATE":null,"MEAN_ELEMENT_THEORY":"SGP4","ELEMENT_SET_NO":"999","OBJECT_ID":"2020-074AM","PERIAPSIS":"539.139","ARG_OF_PERICENTER":"70.0749","EPHEMERIS_TYPE":"0","RCS_SIZE":"LARGE","REF_FRAME":"TEME","MEAN_MOTION_DDOT":"0.0000000000000","TLE_LINE1":"1 46774U 20074AM  21356.59829172  .00014156  00000-0  90671-3 0  9994","GP_ID":"192223979","BSTAR":"0.00090671000000","RA_OF_ASC_NODE":"39.4593","FILE":"3247690","MEAN_MOTION":"15.08796910","PERIOD":"95.440","NORAD_CAT_ID":"46774","MEAN_ANOMALY":"290.0356","CLASSIFICATION_TYPE":"U","COUNTRY_CODE":"US"},{"OBJECT_NAME":"STARLINK-1945","SEMIMAJOR_AXIS":"6712.218","ECCENTRICITY":"0.00014920","OBJECT_TYPE":"PAYLOAD","REV_AT_EPOCH":"6461","MEAN_MOTION_DOT":"0.00547660","TLE_LINE2":"2 46775  53.0563  19.9347 0001492  29.9324 330.1781 15.78714705 64616","APOAPSIS":"335.085","MEAN_ELEMENT_THEORY":"SGP4","DECAY_DATE":null,"EPOCH":"2021-12-22T13:50:59.384544","SITE":"AFETR","LAUNCH_DATE":"2020-10-24","TIME_SYSTEM":"UTC","CENTER_NAME":"EARTH","INCLINATION":"53.0563","BSTAR":"0.00287380000000","GP_ID":"192224841","TLE_LINE1":"1 46775U 20074AN  21356.57707621  .00547660  00000-0  28738-2 0  9992","MEAN_MOTION_DDOT":"0.0000000000000","REF_FRAME":"TEME","RCS_SIZE":"LARGE","ARG_OF_PERICENTER":"29.9324","EPHEMERIS_TYPE":"0","PERIAPSIS":"333.082","OBJECT_ID":"2020-074AN","ELEMENT_SET_NO":"999","COUNTRY_CODE":"US","CLASSIFICATION_TYPE":"U","MEAN_ANOMALY":"330.1781","PERIOD":"91.213","NORAD_CAT_ID":"46775","MEAN_MOTION":"15.78714705","FILE":"3247666","RA_OF_ASC_NODE":"19.9347"}];
